IRIDIUM 166             
1 43570U 18061B   25171.82433447  .00000123  00000+0  37020-4 0  9997
2 43570  86.3983 207.7166 0002252  85.3370 274.8083 14.34217849361605
IRIDIUM 158             
1 43571U 18061C   25171.37401158  .00000021  00000+0  33106-6 0  9992
2 43571  86.3984 207.9143 0002514  91.3050 268.8434 14.34217448361504
IRIDIUM 165             
1 43572U 18061D   25171.39938043  .00000073  00000+0  18966-4 0  9995
2 43572  86.3985 207.9431 0002191  89.7502 270.3945 14.34217646361538
IRIDIUM 155             
1 43573U 18061E   25171.84970576  .00000056  00000+0  13002-4 0  9990
2 43573  86.3981 207.6423 0002548  86.7520 273.3967 14.34217804361562
IRIDIUM 154             
1 43574U 18061F   25171.83067729  .00000176  00000+0  55722-4 0  9995
2 43574  86.3986 207.7658 0002313  91.3559 268.7902 14.34218132361611
IRIDIUM 163             
1 43575U 18061G   25171.81164987  .00000128  00000+0  38718-4 0  9991
2 43575  86.3983 207.7006 0002468  93.6525 266.4953 14.34218106361583
IRIDIUM 156             
1 43576U 18061H   25171.85604793  .00000158  00000+0  49531-4 0  9998
2 43576  86.3983 207.6889 0002490  83.7149 276.4330 14.34218354361584
IRIDIUM 164             
1 43577U 18061J   25171.83701979  .00000096  00000+0  27305-4 0  9997
2 43577  86.3985 207.7315 0002098  89.3457 270.7979 14.34217449361625
